ONEWEB-0306             
1 49188U 21083C   24025.88103636 -.00000087  00000+0 -25214-3 0  9995
2 49188  87.9244 149.2243 0001552 114.9457 245.1836 13.18688105114922
ONEWEB-0307             
1 49189U 21083D   24025.78339255 -.00000261  00000+0 -74851-3 0  9998
2 49189  87.9018 134.1006 0001648 105.6575 254.4736 13.13468377116270
ONEWEB-0320             
1 49190U 21083E   24025.88735917 -.00000033  00000+0 -11716-3 0  9994
2 49190  87.9245 149.2454 0001642 102.8374 257.2942 13.18685301114886
ONEWEB-0322             
1 49192U 21083G   24025.85482097 -.00000259  00000+0 -74460-3 0  9996
2 49192  87.9017 134.0750 0002090  95.8662 264.2705 13.13469903116278
ONEWEB-0324             
1 49193U 21083H   24025.87312790 -.00000035  00000+0 -12218-3 0  9996
2 49193  87.9244 149.2311 0001391  93.0640 267.0651 13.18684861116189
ONEWEB-0325             
1 49194U 21083J   24025.87786997 -.00000021  00000+0 -87168-4 0  9993
2 49194  87.9245 149.2427 0001666 105.2591 254.8725 13.18690074114913
ONEWEB-0326             
1 49195U 21083K   24025.89211217 -.00000004  00000+0 -43463-4 0  9995
2 49195  87.9243 149.2416 0001041 118.1420 241.9817 13.18686623116186
